[{"OBJECT_NAME":"UNKNOWN","OBJECT_ID":"","EPOCH":"2023-09-03T12:58:52.102848","MEAN_MOTION":14.36560336,"ECCENTRICITY":0.00884048,"INCLINATION":97.3625,"RA_OF_ASC_NODE":341.87,"ARG_OF_PERICENTER":285.578,"MEAN_ANOMALY":73.5665,"EPHEMERIS_TYPE":0,"CLASSIFICATION_TYPE":"U","NORAD_CAT_ID":270100,"ELEMENT_SET_NO":999,"REV_AT_EPOCH":19657,"BSTAR":0.003376094,"MEAN_MOTION_DOT":0.0001035,"MEAN_MOTION_DDOT":0},{"OBJECT_NAME":"UNKNOWN","OBJECT_ID":"","EPOCH":"2023-09-13T04:27:22.862592","MEAN_MOTION":12.38906477,"ECCENTRICITY":0.00949816,"INCLINATION":102.2632,"RA_OF_ASC_NODE":228.6373,"ARG_OF_PERICENTER":348.7595,"MEAN_ANOMALY":11.1347,"EPHEMERIS_TYPE":0,"CLASSIFICATION_TYPE":"U","NORAD_CAT_ID":270101,"ELEMENT_SET_NO":999,"REV_AT_EPOCH":17171,"BSTAR":0.00015888535,"MEAN_MOTION_DOT":-2.5e-7,"MEAN_MOTION_DDOT":0},{"OBJECT_NAME":"UNKNOWN","OBJECT_ID":"","EPOCH":"2023-08-30T01:19:27.414624","MEAN_MOTION":15.14166525,"ECCENTRICITY":0.01343263,"INCLINATION":96.9942,"RA_OF_ASC_NODE":2.1645,"ARG_OF_PERICENTER":288.0619,"MEAN_ANOMALY":70.6018,"EPHEMERIS_TYPE":0,"CLASSIFICATION_TYPE":"U","NORAD_CAT_ID":270102,"ELEMENT_SET_NO":999,"REV_AT_EPOCH":19908,"BSTAR":0.0052734426,"MEAN_MOTION_DOT":0.00122092,"MEAN_MOTION_DDOT":0},{"OBJECT_NAME":"UNKNOWN","OBJECT_ID":"","EPOCH":"2023-09-09T14:39:26.587296","MEAN_MOTION":13.02217433,"ECCENTRICITY":0.00268125,"INCLINATION":90.2721,"RA_OF_ASC_NODE":8.4231,"ARG_OF_PERICENTER":331.2839,"MEAN_ANOMALY":28.6807,"EPHEMERIS_TYPE":0,"CLASSIFICATION_TYPE":"U","NORAD_CAT_ID":270103,"ELEMENT_SET_NO":999,"REV_AT_EPOCH":17996,"BSTAR":0.003112881,"MEAN_MOTION_DOT":9.75e-6,"MEAN_MOTION_DDOT":0},{"OBJECT_NAME":"UNKNOWN","OBJECT_ID":"","EPOCH":"2023-09-07T00:08:57.513408","MEAN_MOTION":12.95753318,"ECCENTRICITY":0.00256485,"INCLINATION":90.2601,"RA_OF_ASC_NODE":352.5165,"ARG_OF_PERICENTER":237.4832,"MEAN_ANOMALY":122.3809,"EPHEMERIS_TYPE":0,"CLASSIFICATION_TYPE":"U","NORAD_CAT_ID":270104,"ELEMENT_SET_NO":999,"REV_AT_EPOCH":17877,"BSTAR":0.00041640813,"MEAN_MOTION_DOT":1.25e-6,"MEAN_MOTION_DDOT":0},{"OBJECT_NAME":"UNKNOWN","OBJECT_ID":"","EPOCH":"2023-09-10T16:32:11.771232","MEAN_MOTION":14.29775553,"ECCENTRICITY":0.01960681,"INCLINATION":98.1764,"RA_OF_ASC_NODE":54.6729,"ARG_OF_PERICENTER":203.0223,"MEAN_ANOMALY":156.2084,"EPHEMERIS_TYPE":0,"CLASSIFICATION_TYPE":"U","NORAD_CAT_ID":270105,"ELEMENT_SET_NO":999,"REV_AT_EPOCH":19689,"BSTAR":0.0034652194,"MEAN_MOTION_DOT":0.00010933,"MEAN_MOTION_DDOT":0},{"OBJECT_NAME":"UNKNOWN","OBJECT_ID":"","EPOCH":"2023-09-11T15:28:15.072096","MEAN_MOTION":12.40288078,"ECCENTRICITY":0.01767168,"INCLINATION":56.0554,"RA_OF_ASC_NODE":226.1704,"ARG_OF_PERICENTER":88.5908,"MEAN_ANOMALY":273.523,"EPHEMERIS_TYPE":0,"CLASSIFICATION_TYPE":"U","NORAD_CAT_ID":270106,"ELEMENT_SET_NO":999,"REV_AT_EPOCH":17176,"BSTAR":0.00036551462,"MEAN_MOTION_DOT":-4.2e-7,"MEAN_MOTION_DDOT":0},{"OBJECT_NAME":"UNKNOWN","OBJECT_ID":"","EPOCH":"2023-09-14T22:58:18.465024","MEAN_MOTION":14.35298322,"ECCENTRICITY":0.02446233,"INCLINATION":99.4185,"RA_OF_ASC_NODE":336.4595,"ARG_OF_PERICENTER":145.0006,"MEAN_ANOMALY":216.7533,"EPHEMERIS_TYPE":0,"CLASSIFICATION_TYPE":"U","NORAD_CAT_ID":270107,"ELEMENT_SET_NO":999,"REV_AT_EPOCH":19789,"BSTAR":0.0047849269,"MEAN_MOTION_DOT":0.00019253,"MEAN_MOTION_DDOT":0},{"OBJECT_NAME":"UNKNOWN","OBJECT_ID":"","EPOCH":"2023-09-14T21:30:38.437344","MEAN_MOTION":13.04753098,"ECCENTRICITY":0.00203853,"INCLINATION":90.0626,"RA_OF_ASC_NODE":307.8382,"ARG_OF_PERICENTER":239.4311,"MEAN_ANOMALY":120.4803,"EPHEMERIS_TYPE":0,"CLASSIFICATION_TYPE":"U","NORAD_CAT_ID":270108,"ELEMENT_SET_NO":999,"REV_AT_EPOCH":18103,"BSTAR":0.0052039193,"MEAN_MOTION_DOT":1.685e-5,"MEAN_MOTION_DDOT":0},{"OBJECT_NAME":"UNKNOWN","OBJECT_ID":"","EPOCH":"2023-09-11T13:27:34.507584","MEAN_MOTION":14.61685428,"ECCENTRICITY":0.00346232,"INCLINATION":86.3466,"RA_OF_ASC_NODE":359.8247,"ARG_OF_PERICENTER":175.7757,"MEAN_ANOMALY":184.3753,"EPHEMERIS_TYPE":0,"CLASSIFICATION_TYPE":"U","NORAD_CAT_ID":270109,"ELEMENT_SET_NO":999,"REV_AT_EPOCH":20034,"BSTAR":0.004535401,"MEAN_MOTION_DOT":0.00022844,"MEAN_MOTION_DDOT":0},{"OBJECT_NAME":"UNKNOWN","OBJECT_ID":"","EPOCH":"2023-09-14T23:40:32.512224","MEAN_MOTION":12.97733894,"ECCENTRICITY":0.00337664,"INCLINATION":90.2512,"RA_OF_ASC_NODE":350.4356,"ARG_OF_PERICENTER":149.9794,"MEAN_ANOMALY":210.3272,"EPHEMERIS_TYPE":0,"CLASSIFICATION_TYPE":"U","NORAD_CAT_ID":270110,"ELEMENT_SET_NO":999,"REV_AT_EPOCH":17994,"BSTAR":-0.00030712822,"MEAN_MOTION_DOT":-8.2e-7,"MEAN_MOTION_DDOT":0},{"OBJECT_NAME":"UNKNOWN","OBJECT_ID":"","EPOCH":"2023-09-13T06:46:19.042176","MEAN_MOTION":14.37326884,"ECCENTRICITY":0.00222305,"INCLINATION":98.5283,"RA_OF_ASC_NODE":268.1861,"ARG_OF_PERICENTER":51.4926,"MEAN_ANOMALY":308.825,"EPHEMERIS_TYPE":0,"CLASSIFICATION_TYPE":"U","NORAD_CAT_ID":270111,"ELEMENT_SET_NO":999,"REV_AT_EPOCH":19917,"BSTAR":0.00027079984,"MEAN_MOTION_DOT":7.66e-6,"MEAN_MOTION_DDOT":0},{"OBJECT_NAME":"UNKNOWN","OBJECT_ID":"","EPOCH":"2023-09-14T15:52:00.297120","MEAN_MOTION":12.39725582,"ECCENTRICITY":0.07522172,"INCLINATION":83.1603,"RA_OF_ASC_NODE":31.3667,"ARG_OF_PERICENTER":16.3576,"MEAN_ANOMALY":346.041,"EPHEMERIS_TYPE":0,"CLASSIFICATION_TYPE":"U","NORAD_CAT_ID":270112,"ELEMENT_SET_NO":999,"REV_AT_EPOCH":17186,"BSTAR":0.00062892329,"MEAN_MOTION_DOT":2.37e-6,"MEAN_MOTION_DDOT":0},{"OBJECT_NAME":"UNKNOWN","OBJECT_ID":"","EPOCH":"2023-09-13T23:34:54.076512","MEAN_MOTION":12.94513572,"ECCENTRICITY":0.00257104,"INCLINATION":90.2527,"RA_OF_ASC_NODE":342.6568,"ARG_OF_PERICENTER":7.1867,"MEAN_ANOMALY":352.9615,"EPHEMERIS_TYPE":0,"CLASSIFICATION_TYPE":"U","NORAD_CAT_ID":270113,"ELEMENT_SET_NO":999,"REV_AT_EPOCH":17910,"BSTAR":0.0018960344,"MEAN_MOTION_DOT":5.36e-6,"MEAN_MOTION_DDOT":0},{"OBJECT_NAME":"UNKNOWN","OBJECT_ID":"","EPOCH":"2023-09-13T23:43:18.367392","MEAN_MOTION":12.95370426,"ECCENTRICITY":0.00496754,"INCLINATION":90.2534,"RA_OF_ASC_NODE":346.5019,"ARG_OF_PERICENTER":249.1682,"MEAN_ANOMALY":110.4113,"EPHEMERIS_TYPE":0,"CLASSIFICATION_TYPE":"U","NORAD_CAT_ID":270114,"ELEMENT_SET_NO":999,"REV_AT_EPOCH":17963,"BSTAR":0.00038193186,"MEAN_MOTION_DOT":1.15e-6,"MEAN_MOTION_DDOT":0},{"OBJECT_NAME":"UNKNOWN","OBJECT_ID":"","EPOCH":"2023-09-07T00:21:50.111712","MEAN_MOTION":12.96653382,"ECCENTRICITY":0.00328776,"INCLINATION":90.2503,"RA_OF_ASC_NODE":348.241,"ARG_OF_PERICENTER":234.2552,"MEAN_ANOMALY":125.5509,"EPHEMERIS_TYPE":0,"CLASSIFICATION_TYPE":"U","NORAD_CAT_ID":270115,"ELEMENT_SET_NO":999,"REV_AT_EPOCH":17794,"BSTAR":0.0044540953,"MEAN_MOTION_DOT":1.288e-5,"MEAN_MOTION_DDOT":0},{"OBJECT_NAME":"UNKNOWN","OBJECT_ID":"","EPOCH":"2023-08-28T11:16:08.061600","MEAN_MOTION":12.23396509,"ECCENTRICITY":0.01326746,"INCLINATION":74.009,"RA_OF_ASC_NODE":323.4545,"ARG_OF_PERICENTER":326.0209,"MEAN_ANOMALY":33.2381,"EPHEMERIS_TYPE":0,"CLASSIFICATION_TYPE":"U","NORAD_CAT_ID":270116,"ELEMENT_SET_NO":999,"REV_AT_EPOCH":16771,"BSTAR":0.00042203158,"MEAN_MOTION_DOT":3.2e-7,"MEAN_MOTION_DDOT":0},{"OBJECT_NAME":"UNKNOWN","OBJECT_ID":"","EPOCH":"2023-09-11T22:56:23.243712","MEAN_MOTION":12.99632618,"ECCENTRICITY":0.00263703,"INCLINATION":90.2487,"RA_OF_ASC_NODE":338.7191,"ARG_OF_PERICENTER":20.9007,"MEAN_ANOMALY":339.3187,"EPHEMERIS_TYPE":0,"CLASSIFICATION_TYPE":"U","NORAD_CAT_ID":270117,"ELEMENT_SET_NO":999,"REV_AT_EPOCH":17963,"BSTAR":-0.0016335014,"MEAN_MOTION_DOT":-4.82e-6,"MEAN_MOTION_DDOT":0},{"OBJECT_NAME":"UNKNOWN","OBJECT_ID":"","EPOCH":"2023-09-14T22:33:36.422496","MEAN_MOTION":12.266855,"ECCENTRICITY":0.01273293,"INCLINATION":74.0148,"RA_OF_ASC_NODE":343.3255,"ARG_OF_PERICENTER":74.2858,"MEAN_ANOMALY":287.2183,"EPHEMERIS_TYPE":0,"CLASSIFICATION_TYPE":"U","NORAD_CAT_ID":270118,"ELEMENT_SET_NO":999,"REV_AT_EPOCH":17004,"BSTAR":0.0013001865,"MEAN_MOTION_DOT":1.36e-6,"MEAN_MOTION_DDOT":0},{"OBJECT_NAME":"UNKNOWN","OBJECT_ID":"","EPOCH":"2023-09-06T01:38:53.645280","MEAN_MOTION":14.94266252,"ECCENTRICITY":0.01396961,"INCLINATION":43.041,"RA_OF_ASC_NODE":174.135,"ARG_OF_PERICENTER":47.3618,"MEAN_ANOMALY":313.8902,"EPHEMERIS_TYPE":0,"CLASSIFICATION_TYPE":"U","NORAD_CAT_ID":270119,"ELEMENT_SET_NO":999,"REV_AT_EPOCH":20004,"BSTAR":0.011070053,"MEAN_MOTION_DOT":0.0014905,"MEAN_MOTION_DDOT":0},{"OBJECT_NAME":"UNKNOWN","OBJECT_ID":"","EPOCH":"2023-08-29T12:48:46.615968","MEAN_MOTION":12.37637522,"ECCENTRICITY":0.01361408,"INCLINATION":47.2501,"RA_OF_ASC_NODE":330.507,"ARG_OF_PERICENTER":280.54,"MEAN_ANOMALY":78.0086,"EPHEMERIS_TYPE":0,"CLASSIFICATION_TYPE":"U","NORAD_CAT_ID":270120,"ELEMENT_SET_NO":999,"REV_AT_EPOCH":16943,"BSTAR":0.0092707296,"MEAN_MOTION_DOT":1.153e-5,"MEAN_MOTION_DDOT":0},{"OBJECT_NAME":"UNKNOWN","OBJECT_ID":"","EPOCH":"2023-09-09T14:28:36.480000","MEAN_MOTION":14.4886289,"ECCENTRICITY":0.00046338,"INCLINATION":98.5953,"RA_OF_ASC_NODE":24.3958,"ARG_OF_PERICENTER":318.7791,"MEAN_ANOMALY":41.3052,"EPHEMERIS_TYPE":0,"CLASSIFICATION_TYPE":"U","NORAD_CAT_ID":270121,"ELEMENT_SET_NO":999,"REV_AT_EPOCH":20001,"BSTAR":0.00054060088,"MEAN_MOTION_DOT":1.999e-5,"MEAN_MOTION_DDOT":0},{"OBJECT_NAME":"UNKNOWN","OBJECT_ID":"","EPOCH":"2023-09-10T00:41:12.264288","MEAN_MOTION":12.95747797,"ECCENTRICITY":0.002638,"INCLINATION":90.2525,"RA_OF_ASC_NODE":349.3687,"ARG_OF_PERICENTER":309.943,"MEAN_ANOMALY":49.9373,"EPHEMERIS_TYPE":0,"CLASSIFICATION_TYPE":"U","NORAD_CAT_ID":270122,"ELEMENT_SET_NO":999,"REV_AT_EPOCH":17839,"BSTAR":0.0024645719,"MEAN_MOTION_DOT":7.06e-6,"MEAN_MOTION_DDOT":0},{"OBJECT_NAME":"UNKNOWN","OBJECT_ID":"","EPOCH":"2023-09-03T06:47:53.742624","MEAN_MOTION":12.21299934,"ECCENTRICITY":0.08165526,"INCLINATION":83.2666,"RA_OF_ASC_NODE":94.8588,"ARG_OF_PERICENTER":176.5463,"MEAN_ANOMALY":184.1755,"EPHEMERIS_TYPE":0,"CLASSIFICATION_TYPE":"U","NORAD_CAT_ID":270123,"ELEMENT_SET_NO":999,"REV_AT_EPOCH":16793,"BSTAR":0.0025659878,"MEAN_MOTION_DOT":8.02e-6,"MEAN_MOTION_DDOT":0}]
